start=new Date('2022-11-19T00:00:00.000Z').valueOf();
sats=[{"EPOCH":"2022-11-18T18:57:58.916736","GP_ID":"218167539","OBJECT_TYPE":"PAYLOAD","MEAN_MOTION":"15.57488334","DECAY_DATE":null,"MEAN_MOTION_DDOT":"0.0000000000000","LAUNCH_DATE":"2022-03-09","MEAN_ELEMENT_THEORY":"SGP4","COUNTRY_CODE":"US","TLE_LINE1":"1 51967U 22025M   22322.79026524  .00027928  00000-0  37837-3 0  9994","CENTER_NAME":"EARTH","RA_OF_ASC_NODE":"352.2087","REV_AT_EPOCH":"3977","NORAD_CAT_ID":"51967","SEMIMAJOR_AXIS":"6773.066","OBJECT_NAME":"STARLINK-3695","ECCENTRICITY":"0.00046220","EPHEMERIS_TYPE":"0","MEAN_MOTION_DOT":"0.00027928","RCS_SIZE":"LARGE","BSTAR":"0.00037837000000","APOAPSIS":"398.061","SITE":"AFETR","FILE":"3662753","ELEMENT_SET_NO":"999","CLASSIFICATION_TYPE":"U","PERIOD":"92.457","MEAN_ANOMALY":"254.1887","PERIAPSIS":"391.800","REF_FRAME":"TEME","OBJECT_ID":"2022-025M","ARG_OF_PERICENTER":"105.9636","INCLINATION":"53.2092","TIME_SYSTEM":"UTC","TLE_LINE2":"2 51967  53.2092 352.2087 0004622 105.9636 254.1887 15.57488334 39771"},{"TLE_LINE2":"2 51968  53.2203  47.6347 0001972  41.7665 318.3478 15.08829774 38988","INCLINATION":"53.2203","TIME_SYSTEM":"UTC","ARG_OF_PERICENTER":"41.7665","OBJECT_ID":"2022-025N","REF_FRAME":"TEME","MEAN_ANOMALY":"318.3478","PERIAPSIS":"538.412","CLASSIFICATION_TYPE":"U","ELEMENT_SET_NO":"999","PERIOD":"95.438","FILE":"3662753","SITE":"AFETR","APOAPSIS":"541.141","RCS_SIZE":"LARGE","BSTAR":"0.00006632200000","MEAN_MOTION_DOT":"0.00000767","EPHEMERIS_TYPE":"0","SEMIMAJOR_AXIS":"6917.912","ECCENTRICITY":"0.00019720","NORAD_CAT_ID":"51968","OBJECT_NAME":"STARLINK-3681","RA_OF_ASC_NODE":"47.6347","REV_AT_EPOCH":"3898","CENTER_NAME":"EARTH","COUNTRY_CODE":"US","TLE_LINE1":"1 51968U 22025N   22322.67430453  .00000767  00000-0  66322-4 0  9996","MEAN_ELEMENT_THEORY":"SGP4","LAUNCH_DATE":"2022-03-09","MEAN_MOTION_DDOT":"0.0000000000000","DECAY_DATE":null,"MEAN_MOTION":"15.08829774","EPOCH":"2022-11-18T16:10:59.911392","GP_ID":"218168291","OBJECT_TYPE":"PAYLOAD"},{"OBJECT_ID":"2022-025P","REF_FRAME":"TEME","PERIAPSIS":"538.123","MEAN_ANOMALY":"326.4043","TLE_LINE2":"2 51969  53.2196  47.2730 0002377  33.7100 326.4043 15.08832707 40102","TIME_SYSTEM":"UTC","INCLINATION":"53.2196","ARG_OF_PERICENTER":"33.7100","BSTAR":"0.00014051000000","RCS_SIZE":"LARGE","MEAN_MOTION_DOT":"0.00001948","EPHEMERIS_TYPE":"0","PERIOD":"95.438","CLASSIFICATION_TYPE":"U","ELEMENT_SET_NO":"999","FILE":"3662694","SITE":"AFETR","APOAPSIS":"541.412","TLE_LINE1":"1 51969U 22025P   22322.75525675  .00001948  00000-0  14051-3 0  9990","COUNTRY_CODE":"US","MEAN_ELEMENT_THEORY":"SGP4","LAUNCH_DATE":"2022-03-09","ECCENTRICITY":"0.00023770","SEMIMAJOR_AXIS":"6917.903","NORAD_CAT_ID":"51969","OBJECT_NAME":"STARLINK-3680","REV_AT_EPOCH":"4010","RA_OF_ASC_NODE":"47.2730","CENTER_NAME":"EARTH","DECAY_DATE":null,"MEAN_MOTION":"15.08832707","OBJECT_TYPE":"PAYLOAD","GP_ID":"218143421","EPOCH":"2022-11-18T18:07:34.183200","MEAN_MOTION_DDOT":"0.0000000000000"},{"TLE_LINE2":"2 51970  53.2187  47.6565 0001879  40.3626 319.7505 15.08859200 38985","TIME_SYSTEM":"UTC","INCLINATION":"53.2187","ARG_OF_PERICENTER":"40.3626","OBJECT_ID":"2022-025Q","REF_FRAME":"TEME","PERIAPSIS":"538.387","MEAN_ANOMALY":"319.7505","PERIOD":"95.436","ELEMENT_SET_NO":"999","CLASSIFICATION_TYPE":"U","FILE":"3662753","SITE":"AFETR","APOAPSIS":"540.987","BSTAR":"0.00041276000000","RCS_SIZE":"LARGE","MEAN_MOTION_DOT":"0.00006291","EPHEMERIS_TYPE":"0","SEMIMAJOR_AXIS":"6917.822","NORAD_CAT_ID":"51970","OBJECT_NAME":"STARLINK-3677","ECCENTRICITY":"0.00018790","REV_AT_EPOCH":"3898","RA_OF_ASC_NODE":"47.6565","CENTER_NAME":"EARTH","TLE_LINE1":"1 51970U 22025Q   22322.66693208  .00006291  00000-0  41276-3 0  9995","COUNTRY_CODE":"US","MEAN_ELEMENT_THEORY":"SGP4","LAUNCH_DATE":"2022-03-09","MEAN_MOTION_DDOT":"0.0000000000000","DECAY_DATE":null,"MEAN_MOTION":"15.08859200","OBJECT_TYPE":"PAYLOAD","GP_ID":"218166790","EPOCH":"2022-11-18T16:00:22.931712"},{"ECCENTRICITY":"0.00013500","SEMIMAJOR_AXIS":"6917.894","NORAD_CAT_ID":"51971","OBJECT_NAME":"STARLINK-3669","REV_AT_EPOCH":"3898","RA_OF_ASC_NODE":"47.5883","CENTER_NAME":"EARTH","TLE_LINE1":"1 51971U 22025R   22322.68165579  .00001358  00000-0  10343-3 0  9993","COUNTRY_CODE":"US","MEAN_ELEMENT_THEORY":"SGP4","LAUNCH_DATE":"2022-03-09","MEAN_MOTION_DDOT":"0.0000000000000","DECAY_DATE":null,"MEAN_MOTION":"15.08835384","GP_ID":"218167040","OBJECT_TYPE":"PAYLOAD","EPOCH":"2022-11-18T16:21:35.060256","TLE_LINE2":"2 51971  53.2201  47.5883 0001350  53.4885 306.6232 15.08835384 38980","TIME_SYSTEM":"UTC","INCLINATION":"53.2201","ARG_OF_PERICENTER":"53.4885","OBJECT_ID":"2022-025R","REF_FRAME":"TEME","PERIAPSIS":"538.826","MEAN_ANOMALY":"306.6232","PERIOD":"95.438","ELEMENT_SET_NO":"999","CLASSIFICATION_TYPE":"U","FILE":"3662753","SITE":"AFETR","APOAPSIS":"540.693","RCS_SIZE":"MEDIUM","BSTAR":"0.00010343000000","EPHEMERIS_TYPE":"0","MEAN_MOTION_DOT":"0.00001358"},{"MEAN_ELEMENT_THEORY":"SGP4","COUNTRY_CODE":"US","TLE_LINE1":"1 51972U 22025S   22322.72949313  .00000565  00000-0  53586-4 0  9991","LAUNCH_DATE":"2022-03-09","SEMIMAJOR_AXIS":"6917.892","OBJECT_NAME":"STARLINK-3671","NORAD_CAT_ID":"51972","ECCENTRICITY":"0.00021740","CENTER_NAME":"EARTH","RA_OF_ASC_NODE":"47.3858","REV_AT_EPOCH":"3899","MEAN_MOTION":"15.08836057","DECAY_DATE":null,"EPOCH":"2022-11-18T17:30:28.206432","OBJECT_TYPE":"PAYLOAD","GP_ID":"218167791","MEAN_MOTION_DDOT":"0.0000000000000","OBJECT_ID":"2022-025S","MEAN_ANOMALY":"325.3680","PERIAPSIS":"538.253","REF_FRAME":"TEME","INCLINATION":"53.2193","TIME_SYSTEM":"UTC","TLE_LINE2":"2 51972  53.2193  47.3858 0002174  34.7453 325.3680 15.08836057 38993","ARG_OF_PERICENTER":"34.7453","RCS_SIZE":"LARGE","BSTAR":"0.00005358600000","EPHEMERIS_TYPE":"0","MEAN_MOTION_DOT":"0.00000565","FILE":"3662753","ELEMENT_SET_NO":"999","CLASSIFICATION_TYPE":"U","PERIOD":"95.438","APOAPSIS":"541.261","SITE":"AFETR"},{"MEAN_MOTION_DDOT":"0.0000000000000","DECAY_DATE":null,"MEAN_MOTION":"15.08837032","OBJECT_TYPE":"PAYLOAD","GP_ID":"218168531","EPOCH":"2022-11-18T16:05:41.339904","NORAD_CAT_ID":"51973","SEMIMAJOR_AXIS":"6917.889","ECCENTRICITY":"0.00021990","OBJECT_NAME":"STARLINK-3679","RA_OF_ASC_NODE":"47.6340","REV_AT_EPOCH":"3898","CENTER_NAME":"EARTH","TLE_LINE1":"1 51973U 22025T   22322.67061736  .00000558  00000-0  53150-4 0  9999","COUNTRY_CODE":"US","MEAN_ELEMENT_THEORY":"SGP4","LAUNCH_DATE":"2022-03-09","PERIOD":"95.438","CLASSIFICATION_TYPE":"U","ELEMENT_SET_NO":"999","FILE":"3662753","SITE":"AFETR","APOAPSIS":"541.276","RCS_SIZE":"LARGE","BSTAR":"0.00005315000000","MEAN_MOTION_DOT":"0.00000558","EPHEMERIS_TYPE":"0","TLE_LINE2":"2 51973  53.2182  47.6340 0002199  39.0567 321.0584 15.08837032 38981","TIME_SYSTEM":"UTC","INCLINATION":"53.2182","ARG_OF_PERICENTER":"39.0567","OBJECT_ID":"2022-025T","REF_FRAME":"TEME","PERIAPSIS":"538.233","MEAN_ANOMALY":"321.0584"},{"MEAN_MOTION":"15.08843344","DECAY_DATE":null,"EPOCH":"2022-11-18T15:49:47.263584","GP_ID":"218167291","OBJECT_TYPE":"PAYLOAD","MEAN_MOTION_DDOT":"0.0000000000000","MEAN_ELEMENT_THEORY":"SGP4","COUNTRY_CODE":"US","TLE_LINE1":"1 51974U 22025U   22322.65957481  .00004759  00000-0  31686-3 0  9995","LAUNCH_DATE":"2022-03-09","NORAD_CAT_ID":"51974","SEMIMAJOR_AXIS":"6917.870","ECCENTRICITY":"0.00019940","OBJECT_NAME":"STARLINK-3672","CENTER_NAME":"EARTH","RA_OF_ASC_NODE":"47.6847","REV_AT_EPOCH":"3897","BSTAR":"0.00031686000000","RCS_SIZE":"MEDIUM","MEAN_MOTION_DOT":"0.00004759","EPHEMERIS_TYPE":"0","FILE":"3662753","CLASSIFICATION_TYPE":"U","ELEMENT_SET_NO":"999","PERIOD":"95.437","APOAPSIS":"541.115","SITE":"AFETR","OBJECT_ID":"2022-025U","MEAN_ANOMALY":"312.7853","PERIAPSIS":"538.356","REF_FRAME":"TEME","INCLINATION":"53.2197","TIME_SYSTEM":"UTC","TLE_LINE2":"2 51974  53.2197  47.6847 0001994  47.3307 312.7853 15.08843344 38974","ARG_OF_PERICENTER":"47.3307"},{"SITE":"AFETR","APOAPSIS":"541.446","PERIOD":"95.438","ELEMENT_SET_NO":"999","CLASSIFICATION_TYPE":"U","FILE":"3662753","MEAN_MOTION_DOT":"0.00001319","EPHEMERIS_TYPE":"0","BSTAR":"0.00010097000000","RCS_SIZE":"LARGE","ARG_OF_PERICENTER":"28.9000","TLE_LINE2":"2 51975  53.2183  47.7002 0002461  28.9000 331.2128 15.08840749 38987","TIME_SYSTEM":"UTC","INCLINATION":"53.2183","REF_FRAME":"TEME","PERIAPSIS":"538.041","MEAN_ANOMALY":"331.2128","OBJECT_ID":"2022-025V","MEAN_MOTION_DDOT":"0.0000000000000","GP_ID":"218167540","OBJECT_TYPE":"PAYLOAD","EPOCH":"2022-11-18T15:51:10.066752","DECAY_DATE":null,"MEAN_MOTION":"15.08840749","RA_OF_ASC_NODE":"47.7002","REV_AT_EPOCH":"3898","CENTER_NAME":"EARTH","SEMIMAJOR_AXIS":"6917.878","ECCENTRICITY":"0.00024610","NORAD_CAT_ID":"51975","OBJECT_NAME":"STARLINK-3674","LAUNCH_DATE":"2022-03-09","TLE_LINE1":"1 51975U 22025V   22322.66053318  .00001319  00000-0  10097-3 0  9995","COUNTRY_CODE":"US","MEAN_ELEMENT_THEORY":"SGP4"},{"ARG_OF_PERICENTER":"44.8990","TIME_SYSTEM":"UTC","INCLINATION":"53.2184","TLE_LINE2":"2 51976  53.2184  58.0067 0002063  44.8990 315.2169 15.08840763 38835","PERIAPSIS":"538.316","MEAN_ANOMALY":"315.2169","REF_FRAME":"TEME","OBJECT_ID":"2022-025W","APOAPSIS":"541.170","SITE":"AFETR","FILE":"3662753","PERIOD":"95.438","ELEMENT_SET_NO":"999","CLASSIFICATION_TYPE":"U","EPHEMERIS_TYPE":"0","MEAN_MOTION_DOT":"0.00000197","RCS_SIZE":"LARGE","BSTAR":"0.00003048600000","CENTER_NAME":"EARTH","REV_AT_EPOCH":"3883","RA_OF_ASC_NODE":"58.0067","NORAD_CAT_ID":"51976","SEMIMAJOR_AXIS":"6917.878","ECCENTRICITY":"0.00020630","OBJECT_NAME":"STARLINK-3663","LAUNCH_DATE":"2022-03-09","MEAN_ELEMENT_THEORY":"SGP4","TLE_LINE1":"1 51976U 22025W   22322.59241129  .00000197  00000-0  30486-4 0  9995","COUNTRY_CODE":"US","MEAN_MOTION_DDOT":"0.0000000000000","GP_ID":"218168292","OBJECT_TYPE":"PAYLOAD","EPOCH":"2022-11-18T14:13:04.335456","MEAN_MOTION":"15.08840763","DECAY_DATE":null}];
